[{"OBJECT_NAME":"OBJECT F","OBJECT_ID":"2023-072F","EPOCH":"2026-03-09T23:31:37.259904","MEAN_MOTION":15.29470958,"ECCENTRICITY":0.00062878,"INCLINATION":97.5173,"RA_OF_ASC_NODE":265.798,"ARG_OF_PERICENTER":19.0017,"MEAN_ANOMALY":341.1456,"EPHEMERIS_TYPE":0,"CLASSIFICATION_TYPE":"U","NORAD_CAT_ID":56748,"ELEMENT_SET_NO":999,"REV_AT_EPOCH":15460,"BSTAR":0.00043416252,"MEAN_MOTION_DOT":0.00012341,"MEAN_MOTION_DDOT":0},{"OBJECT_NAME":"STARLINK-30272","OBJECT_ID":"2023-141W","EPOCH":"2026-03-09T20:33:02.576448","MEAN_MOTION":15.30192704,"ECCENTRICITY":0.00010848,"INCLINATION":53.1598,"RA_OF_ASC_NODE":283.3355,"ARG_OF_PERICENTER":124.0416,"MEAN_ANOMALY":236.0688,"EPHEMERIS_TYPE":0,"CLASSIFICATION_TYPE":"U","NORAD_CAT_ID":57860,"ELEMENT_SET_NO":999,"REV_AT_EPOCH":14035,"BSTAR":2.6917351e-5,"MEAN_MOTION_DOT":4.38e-6,"MEAN_MOTION_DDOT":0}]
